STARLINK-31677          
1 59749U 24090V   26044.14764403 -.00001916  00000+0 -60152-4 0  9990
2 59749  42.9966 322.3676 0000903 280.6213  79.4537 15.27563548 99677
STARLINK-31783          
1 59750U 24090W   26044.15535531 -.00001546  00000+0 -46697-4 0  9998
2 59750  43.0036 322.4198 0001138 286.2674  73.8053 15.27569811 99673
STARLINK-31808          
1 59751U 24090X   26044.16163501  .00005904  00000+0  22412-3 0  9992
2 59751  43.0023 321.6113 0000879 331.1676  28.9127 15.27546902 99681
STARLINK-31822          
1 59752U 24090Y   26044.11808545 -.00005381  00000+0 -18612-3 0  9990
2 59752  43.0014 322.1423 0000745 295.1457  64.9317 15.27588557 99672
STARLINK-11118 [DTC]    
1 59754U 24091B   26044.01659103  .00000152  00000+0  61085-5 0  9999
2 59754  53.1586 328.2252 0000606  65.3944 294.7137 15.69704968101636
STARLINK-11132 [DTC]    
1 59755U 24091C   26044.07045835 -.00001791  00000+0 -99348-5 0  9992
2 59755  53.1600 327.8414 0001180 105.8927 254.2221 15.69696266101645
STARLINK-11131 [DTC]    
1 59756U 24091D   26044.06555348 -.00002184  00000+0 -13182-4 0  9995
2 59756  53.1595 327.8148 0001022  67.5882 292.5244 15.69698468101648
STARLINK-11114 [DTC]    
1 59757U 24091E   26044.06065226 -.00002415  00000+0 -15091-4 0  9995
2 59757  53.1589 327.8022 0000992  75.9634 284.1494 15.69692808101642
STARLINK-11105 [DTC]    
1 59758U 24091F   26044.05571286  .00001557  00000+0  17694-4 0  9998
2 59758  53.1580 327.7658 0000877  80.3112 279.8005 15.69721747101645
STARLINK-11097 [DTC]    
1 59759U 24091G   26044.05083677 -.00002462  00000+0 -15488-4 0  9998
2 59759  53.1590 327.7139 0000914 107.8459 252.2659 15.69690656101646
STARLINK-11098 [DTC]    
1 59760U 24091H   26044.04592299 -.00001239  00000+0 -53740-5 0  9999
2 59760  53.1585 327.6784 0000880  61.9600 298.1506 15.69701357101648
STARLINK-11117 [DTC]    
1 59761U 24091J   26044.04101798 -.00003742  00000+0 -26044-4 0  9997
2 59761  53.1575 327.6446 0001533 143.9455 216.1667 15.69699709101643
STARLINK-11110 [DTC]    
1 59762U 24091K   26044.16345181 -.00003528  00000+0 -24263-4 0  9990
2 59762  53.1588 326.9891 0001316 102.6235 257.4930 15.69714490101669
STARLINK-11104 [DTC]    
1 59763U 24091L   26044.15854667 -.00001344  00000+0 -62376-5 0  9996
2 59763  53.1586 326.9525 0001254  92.6525 267.4637 15.69704714101666
STARLINK-11111 [DTC]    
1 59764U 24091M   26044.02138162  .00003419  00000+0  33059-4 0  9996
2 59764  53.1587 327.5158 0002501 158.4966 201.6158 15.69725762101645
STARLINK-11106 [DTC]    
1 59765U 24091N   26044.15363975 -.00000846  00000+0 -21295-5 0  9996
2 59765  53.1585 326.9238 0001009 106.3241 253.7888 15.69702262101666
STARLINK-31739          
1 59766U 24091P   26043.52961102 -.00002638  00000+0 -77072-4 0  9997
2 59766  53.1599 140.8233 0001379  81.1862 278.9295 15.30162086 99196
STARLINK-31828          
1 59767U 24091Q   26043.47968865  .00002535  00000+0  97717-4 0  9997
2 59767  53.1604 144.0544 0001434  59.4216 300.6926 15.30192486 99144
STARLINK-31826          
1 59768U 24091R   26043.67880054 -.00000609  00000+0 -84463-5 0  9990
2 59768  53.1598 143.1637 0001173  89.9333 270.1802 15.30193696 99179
STARLINK-31830          
1 59769U 24091S   26043.55134561 -.00001132  00000+0 -26129-4 0  9999
2 59769  53.1598 143.7911 0001315  94.5909 265.5242 15.30177678 99156
STARLINK-31829          
1 59770U 24091T   26043.47652701 -.00000020  00000+0  11457-4 0  9995
2 59770  53.1604 144.0344 0001312  85.0152 275.0998 15.30189443 99148
STARLINK-31786          
1 59771U 24091U   26043.55555869  .00000514  00000+0  29498-4 0  9993
2 59771  53.1609 143.8146 0001208  83.5106 276.6032 15.30192112 99151
STARLINK-31835          
1 59772U 24091V   26043.47336044 -.00000330  00000+0  99934-6 0  9998
2 59772  53.1602 144.0110 0001280  78.8863 281.2282 15.30190810 99147
COSMOS 2576             
1 59773U 24092A   26043.66831857  .00014326  00000+0  54290-3 0  9995
2 59773  97.4238 160.9625 0004295 252.2743 107.8027 15.26991407 97432
2024-092B               
1 59774U 24092B   26044.15927905  .00012324  00000+0  48196-3 0  9995
2 59774  97.6305 170.2695 0008742 256.6059 103.4204 15.25961384 96607
2024-092C               
1 59775U 24092C   26044.19416369  .00011328  00000+0  43497-3 0  9999
2 59775  97.6446 171.7871 0008817 259.3873 100.6372 15.26595663 96646
2024-092D               
1 59776U 24092D   26043.87472464  .00019407  00000+0  63182-3 0  9991
2 59776  97.6389 172.4174 0007660 228.2949 131.7638 15.31873355 96688
2024-092E               
1 59777U 24092E   26043.88260346  .00019322  00000+0  63058-3 0  9995
2 59777  97.6391 172.3987 0007925 229.0334 131.0221 15.31794418 96687
2024-092F               
1 59778U 24092F   26044.10830536  .00021189  00000+0  67865-3 0  9990
2 59778  97.6382 172.8336 0007960 228.5868 131.4689 15.32377838 96738
2024-092G               
1 59779U 24092G   26044.18596082  .00000231  00000+0  10305-3 0  9996
2 59779  98.6536 163.4770 0011499 208.4196 151.6361 14.31786387 91155
2024-092H               
1 59780U 24092H   26044.18588418  .00000246  00000+0  10883-3 0  9999
2 59780  98.6536 163.4708 0011848 209.9679 150.0828 14.31786045 91150
2024-092J               
1 59781U 24092J   26044.18452304  .00000240  00000+0  10647-3 0  9996
2 59781  98.6537 163.4742 0011744 210.1311 149.9198 14.31787003 91154
STARLINK-31363          
1 59782U 24093A   26044.18083186 -.00000626  00000+0 -13174-4 0  9995
2 59782  43.0106 344.0972 0003690 243.9113 116.1359 15.27570282 98986
STARLINK-31868          
1 59783U 24093B   26044.18211061 -.00000612  00000+0 -12711-4 0  9992
2 59783  43.0046 344.0756 0002477 262.2396  97.8175 15.27570872 98985
STARLINK-31848          
1 59784U 24093C   26044.15642737  .00000726  00000+0  35921-4 0  9990
2 59784  43.0068 343.9654 0002134 251.0873 108.9747 15.27574055 98987
STARLINK-31890          
1 59785U 24093D   26044.16028276  .00000675  00000+0  34066-4 0  9990
2 59785  43.0039 343.9954 0001289 262.3803  97.6902 15.27562433 98981
STARLINK-31862          
1 59786U 24093E   26043.93665772 -.00001269  00000+0 -36616-4 0  9998
2 59786  43.0028 348.3575 0001487 276.2692  83.7990 15.27568466 98916
STARLINK-31870          
1 59787U 24093F   26043.21353907  .00001167  00000+0  51911-4 0  9994
2 59787  42.9986 352.3920 0000530 280.1711  79.9081 15.27586698 98804
STARLINK-31888          
1 59788U 24093G   26043.87769661 -.00001165  00000+0 -32836-4 0  9990
2 59788  43.0043 348.7738 0000819 253.8539 106.2222 15.27569035 98900
STARLINK-31863          
1 59789U 24093H   26043.87512861  .00000396  00000+0  23917-4 0  9992
2 59789  42.9954 348.7624 0000925  38.0321 322.0595 15.27577359 98903
STARLINK-31873          
1 59790U 24093J   26043.88540857 -.00000249  00000+0  46395-6 0  9996
2 59790  43.0010 348.8335 0000185 286.9402  73.1429 15.27574135 98901
STARLINK-31865          
1 59791U 24093K   26043.95464105 -.00004669  00000+0 -16016-3 0  9991
2 59791  43.0037 348.4914 0004329 296.6469  63.3939 15.27576854 98913
STARLINK-31823          
1 59794U 24093N   26043.89311258 -.00000290  00000+0 -10408-5 0  9994
2 59794  43.0031 348.8859 0000464 344.3400  15.7438 15.27573870 98903
STARLINK-31916          
1 59795U 24093P   26044.15851929 -.00001202  00000+0 -34183-4 0  9998
2 59795  43.0028 347.4427 0000817 298.4443  61.6326 15.27575458 98948
STARLINK-31907          
1 59797U 24093R   26044.16108866 -.00003877  00000+0 -13146-3 0  9991
2 59797  43.0025 347.4623 0001057 289.0359  71.0378 15.27579110 98945
STARLINK-31687          
1 59798U 24093S   26043.85985490  .00001303  00000+0  56861-4 0  9995
2 59798  42.9996 349.4985 0000932 295.6617  64.4138 15.27576625 98897
STARLINK-31810          
1 59799U 24093T   26044.17264595  .00000993  00000+0  45619-4 0  9991
2 59799  43.0031 347.5450 0001372 265.5537  94.5158 15.27571256 98949
STARLINK-31812          
1 59800U 24093U   26044.16493957  .00000093  00000+0  12892-4 0  9997
2 59800  43.0061 347.4871 0001139 273.3844  86.6878 15.27576939 99013
STARLINK-31815          
1 59801U 24093V   26044.16879359  .00000461  00000+0  26290-4 0  9998
2 59801  43.0039 347.5171 0001213 280.9934  79.0781 15.27583707 98941
STARLINK-31814          
1 59802U 24093W   26044.12524619 -.00001928  00000+0 -60580-4 0  9992
2 59802  43.0031 348.0345 0001131 272.7472  87.3251 15.27576494 98936
STARLINK-31794          
1 59803U 24093X   26044.18035987 -.00000286  00000+0 -87510-6 0  9994
2 59803  43.0034 347.5988 0001407 263.3364  96.7327 15.27577298 99010
STARLINK-31824          
1 59804U 24093Y   26044.17650457 -.00000724  00000+0 -16775-4 0  9999
2 59804  43.0023 347.5696 0001496 254.1355 105.9331 15.27575774 98947
2024-094A               
1 59805U 24094A   26044.20262832  .00008286  00000+0  42179-3 0  9996
2 59805  97.4009 118.1068 0006167 260.8979  99.1557 15.17047455 96374
2024-094B               
1 59806U 24094B   26044.16981719  .00007958  00000+0  40349-3 0  9996
2 59806  97.4028 118.2612 0010316 153.1905 206.9864 15.17167138 96365
2024-094C               
1 59807U 24094C   26044.18600253  .00007598  00000+0  38579-3 0  9992
2 59807  97.4058 118.4034 0006810 264.4649  95.5808 15.17161980 96363
2024-094D               
1 59808U 24094D   26044.21629198  .00008484  00000+0  43015-3 0  9992
2 59808  97.3983 117.9486 0005635 267.2768  92.7821 15.17181646 96367
2024-092K               
1 59809U 24092K   26043.85743213  .00019237  00000+0  63066-3 0  9991
2 59809  97.6379 172.2291 0008023 229.8515 130.2024 15.31649258 96172
2024-095A               
1 59810U 24095A   26044.19067541  .00004974  00000+0  29548-3 0  9996
2 59810  97.5437 124.8796 0002499 171.8647 188.2624 15.11751677 95416
2024-095C               
1 59812U 24095C   26044.22517869  .00091029  00000+0  11806-2 0  9999
2 59812  97.5494 142.1391 0005477 210.7340 149.3595 15.58532060 96754
